[{"OBJECT_NAME":"DAQI 1","OBJECT_ID":"2022-039A","EPOCH":"2026-03-09T22:54:20.613600","MEAN_MOTION":14.57656651,"ECCENTRICITY":0.00031421,"INCLINATION":98.1406,"RA_OF_ASC_NODE":9.9086,"ARG_OF_PERICENTER":179.0073,"MEAN_ANOMALY":181.1133,"EPHEMERIS_TYPE":0,"CLASSIFICATION_TYPE":"U","NORAD_CAT_ID":52257,"ELEMENT_SET_NO":999,"REV_AT_EPOCH":20748,"BSTAR":0.00015776959,"MEAN_MOTION_DOT":6.74e-6,"MEAN_MOTION_DDOT":0},{"OBJECT_NAME":"CZ-6A DEB","OBJECT_ID":"2024-140BD","EPOCH":"2026-03-09T15:09:41.578272","MEAN_MOTION":14.46913473,"ECCENTRICITY":0.005177,"INCLINATION":88.9219,"RA_OF_ASC_NODE":278.0756,"ARG_OF_PERICENTER":256.5688,"MEAN_ANOMALY":102.9744,"EPHEMERIS_TYPE":0,"CLASSIFICATION_TYPE":"U","NORAD_CAT_ID":60652,"ELEMENT_SET_NO":999,"REV_AT_EPOCH":8344,"BSTAR":0.00083407,"MEAN_MOTION_DOT":3.092e-5,"MEAN_MOTION_DDOT":0}]
